{
"type": "FeatureCollection",
"name": "KPR_POI",
"crs": { "type": "name", "properties": { "name": "urn:ogc:def:crs:OGC:1.3:CRS84" } },
"features": [
{ "type": "Feature", "properties": { "id": null, "what it is": "river crossing", "Name": null }, "geometry": { "type": "Point", "coordinates": [ 23.677897943689604, -19.135362128362623 ] } },
{ "type": "Feature", "properties": { "id": null, "what it is": "bridge", "Name": "LS Bridge" }, "geometry": { "type": "Point", "coordinates": [ 23.693562832967878, -19.14738035194457 ] } },
{ "type": "Feature", "properties": { "id": null, "what it is": "air strip", "Name": null }, "geometry": { "type": "Point", "coordinates": [ 23.651650784882452, -19.096445654631523 ] } },
{ "type": "Feature", "properties": { "id": null, "what it is": "river crossing", "Name": null }, "geometry": { "type": "Point", "coordinates": [ 23.676558443656806, -19.138467641760236 ] } },
{ "type": "Feature", "properties": { "id": null, "what it is": "river crossing", "Name": null }, "geometry": { "type": "Point", "coordinates": [ 23.668983269769445, -19.13637921549714 ] } },
{ "type": "Feature", "properties": { "id": null, "what it is": "old bridge", "Name": "Tau Bridge" }, "geometry": { "type": "Point", "coordinates": [ 23.656486876178874, -19.141584387009786 ] } },
{ "type": "Feature", "properties": { "id": null, "what it is": "river crossing", "Name": null }, "geometry": { "type": "Point", "coordinates": [ 23.651172519137479, -19.146136925561752 ] } },
{ "type": "Feature", "properties": { "id": null, "what it is": "entry point to KPR", "Name": null }, "geometry": { "type": "Point", "coordinates": [ 23.713293268844616, -19.123926007929164 ] } },
{ "type": "Feature", "properties": { "id": null, "what it is": "entry point to KPR", "Name": null }, "geometry": { "type": "Point", "coordinates": [ 23.713002043393946, -19.159481229723117 ] } },
{ "type": "Feature", "properties": { "id": null, "what it is": "entry point to KPR", "Name": null }, "geometry": { "type": "Point", "coordinates": [ 23.712969083792633, -19.163506551906188 ] } },
{ "type": "Feature", "properties": { "id": null, "what it is": "entry point to KPR", "Name": null }, "geometry": { "type": "Point", "coordinates": [ 23.709414832715222, -19.164554845412315 ] } },
{ "type": "Feature", "properties": { "id": null, "what it is": "entry point to KPR", "Name": null }, "geometry": { "type": "Point", "coordinates": [ 23.704676794920079, -19.163757653377402 ] } },
{ "type": "Feature", "properties": { "id": null, "what it is": "entry point to KPR", "Name": null }, "geometry": { "type": "Point", "coordinates": [ 23.699166110226404, -19.162828317186403 ] } },
{ "type": "Feature", "properties": { "id": null, "what it is": "entry point to KPR", "Name": null }, "geometry": { "type": "Point", "coordinates": [ 23.696913835195296, -19.162446821961893 ] } },
{ "type": "Feature", "properties": { "id": null, "what it is": "entry point to KPR", "Name": null }, "geometry": { "type": "Point", "coordinates": [ 23.669267542137444, -19.157784329864544 ] } },
{ "type": "Feature", "properties": { "id": null, "what it is": "entry point to KPR", "Name": null }, "geometry": { "type": "Point", "coordinates": [ 23.666902440903211, -19.157385985264703 ] } },
{ "type": "Feature", "properties": { "id": null, "what it is": "entry point to KPR", "Name": null }, "geometry": { "type": "Point", "coordinates": [ 23.667214077178304, -19.157438353894953 ] } },
{ "type": "Feature", "properties": { "id": null, "what it is": "entry point to KPR", "Name": null }, "geometry": { "type": "Point", "coordinates": [ 23.667889818298622, -19.157553056836498 ] } },
{ "type": "Feature", "properties": { "id": null, "what it is": "entry point to KPR", "Name": null }, "geometry": { "type": "Point", "coordinates": [ 23.632656894553314, -19.151609946915777 ] } },
{ "type": "Feature", "properties": { "id": null, "what it is": "entry point to KPR", "Name": null }, "geometry": { "type": "Point", "coordinates": [ 23.505826360983644, -19.097745803970881 ] } },
{ "type": "Feature", "properties": { "id": null, "what it is": "entry point to KPR", "Name": null }, "geometry": { "type": "Point", "coordinates": [ 23.713602195592095, -19.08254040750732 ] } },
{ "type": "Feature", "properties": { "id": null, "what it is": "entry point to KPR", "Name": null }, "geometry": { "type": "Point", "coordinates": [ 23.749781666013185, -19.073328956667453 ] } },
{ "type": "Feature", "properties": { "id": null, "what it is": "entry point to KPR", "Name": null }, "geometry": { "type": "Point", "coordinates": [ 23.757413864134492, -19.071329116819243 ] } },
{ "type": "Feature", "properties": { "id": null, "what it is": "entry point to KPR", "Name": null }, "geometry": { "type": "Point", "coordinates": [ 23.784121651535067, -19.056274440113675 ] } },
{ "type": "Feature", "properties": { "id": null, "what it is": "entry point to KPR", "Name": null }, "geometry": { "type": "Point", "coordinates": [ 23.837294024350992, -19.037938764127023 ] } },
{ "type": "Feature", "properties": { "id": null, "what it is": "entry point to KPR", "Name": null }, "geometry": { "type": "Point", "coordinates": [ 23.623489639071281, -19.15006416048254 ] } },
{ "type": "Feature", "properties": { "id": null, "what it is": "Bridge", "Name": null }, "geometry": { "type": "Point", "coordinates": [ 23.569787655712354, -19.138634876554544 ] } },
{ "type": "Feature", "properties": { "id": null, "what it is": "Mokoro Station", "Name": "Mokoro Station" }, "geometry": { "type": "Point", "coordinates": [ 23.717258001783552, -19.144402793672636 ] } },
{ "type": "Feature", "properties": { "id": null, "what it is": "Boat Station", "Name": "Boat Station" }, "geometry": { "type": "Point", "coordinates": [ 23.669380752921988, -19.169541342521441 ] } },
{ "type": "Feature", "properties": { "id": null, "what it is": "Pan", "Name": "Pitsi Pan" }, "geometry": { "type": "Point", "coordinates": [ 23.69971315175486, -19.128995154626327 ] } },
{ "type": "Feature", "properties": { "id": null, "what it is": "Pan", "Name": "Kwatala Pan" }, "geometry": { "type": "Point", "coordinates": [ 23.652799212366574, -19.133406784495044 ] } },
{ "type": "Feature", "properties": { "id": null, "what it is": "Pan", "Name": "Sable Pan" }, "geometry": { "type": "Point", "coordinates": [ 23.660822184729707, -19.129103553863906 ] } },
{ "type": "Feature", "properties": { "id": null, "what it is": "Old mokoro station", "Name": "Old Mokoro Station" }, "geometry": { "type": "Point", "coordinates": [ 23.646904278553635, -19.126514320238051 ] } },
{ "type": "Feature", "properties": { "id": null, "what it is": "Mokoro Station", "Name": "Mokoro Station" }, "geometry": { "type": "Point", "coordinates": [ 23.56676360648115, -19.150476396676769 ] } },
{ "type": "Feature", "properties": { "id": null, "what it is": "River Crossing", "Name": "River Crossing" }, "geometry": { "type": "Point", "coordinates": [ 23.567926003639901, -19.147129346596284 ] } },
{ "type": "Feature", "properties": { "id": null, "what it is": "River Crossing", "Name": "River Crossing" }, "geometry": { "type": "Point", "coordinates": [ 23.583529083837863, -19.153996641239114 ] } },
{ "type": "Feature", "properties": { "id": null, "what it is": null, "Name": "Kabojane" }, "geometry": { "type": "Point", "coordinates": [ 23.608242984508021, -19.160861562668881 ] } },
{ "type": "Feature", "properties": { "id": null, "what it is": null, "Name": "Mapako amoremi" }, "geometry": { "type": "Point", "coordinates": [ 23.626092966308512, -19.154861392544408 ] } },
{ "type": "Feature", "properties": { "id": null, "what it is": null, "Name": "Old Lechwe Flats" }, "geometry": { "type": "Point", "coordinates": [ 23.614469614006001, -19.150851294110481 ] } },
{ "type": "Feature", "properties": { "id": null, "what it is": "Pan", "Name": "Bolele Pan" }, "geometry": { "type": "Point", "coordinates": [ 23.5929422804548, -19.120766963741413 ] } },
{ "type": "Feature", "properties": { "id": null, "what it is": null, "Name": "Zambo's" }, "geometry": { "type": "Point", "coordinates": [ 23.595457355734062, -19.129961750251685 ] } },
{ "type": "Feature", "properties": { "id": null, "what it is": "Kingfisher Crossing", "Name": "Kingfisher Crossing" }, "geometry": { "type": "Point", "coordinates": [ 23.562529693583784, -19.128475858480193 ] } },
{ "type": "Feature", "properties": { "id": null, "what it is": "Pan", "Name": "Green Pan" }, "geometry": { "type": "Point", "coordinates": [ 23.565292067735673, -19.123152535875143 ] } },
{ "type": "Feature", "properties": { "id": null, "what it is": "Pan", "Name": "Jackal Pan" }, "geometry": { "type": "Point", "coordinates": [ 23.546254632759211, -19.114006917940561 ] } },
{ "type": "Feature", "properties": { "id": null, "what it is": "Pan", "Name": "Babasa Pan" }, "geometry": { "type": "Point", "coordinates": [ 23.577630586309223, -19.125856736051325 ] } },
{ "type": "Feature", "properties": { "id": null, "what it is": null, "Name": "river crossing" }, "geometry": { "type": "Point", "coordinates": [ 23.558256998178987, -19.130150972223408 ] } }
]
}
