{"type":"FeatureCollection","name":"Oka_Delta","features":[{"type":"Feature","properties":{"id":null,"name":"Okavango Delta"},"geometry":{"type":"MultiPolygon","coordinates":[[[[21.72241669040162,-18.137526557229375],[21.80535299216814,-18.192358090928394],[21.820767040914017,-18.24008958148404],[21.85140817836565,-18.262039979247838],[21.923829807015537,-18.297552743643816],[21.99544854726399,-18.33766049498699],[22.08300847165818,-18.4157260207743],[22.15840971107253,-18.49069924295157],[22.31116793219205,-18.66499291989564],[22.417726405518,-18.77053734558114],[22.535335783901218,-18.85008560647606],[22.596873737950936,-18.783707984103785],[22.64995054702778,-18.770088713962167],[22.707079102590857,-18.737303437864412],[22.75023660305381,-18.692246061495066],[22.793802904004693,-18.662384439776748],[22.85596578665883,-18.61981018023002],[22.882444412235653,-18.59701974232887],[22.91054282227871,-18.568345997039216],[23.040010522070272,-18.466823915722763],[23.094121429768936,-18.415874221665177],[23.06104419801585,-18.5094955420612],[22.96616204134928,-18.589779523678253],[22.93630044659696,-18.647376349887153],[22.90570584451144,-18.702885685137023],[22.919821430518112,-18.722249459131667],[22.977147894532106,-18.720164836151426],[23.001737433262516,-18.716040478513033],[23.028977099049584,-18.690766325954645],[23.08143761724642,-18.659416691365372],[23.094567318696082,-18.692842890559188],[23.134472453409007,-18.675607152152644],[23.16014482547308,-18.69396394702734],[23.210585465494198,-18.659805894549496],[23.255783411086117,-18.60052184660663],[23.321590590994262,-18.54936938177993],[23.346350207334375,-18.536941404587335],[23.349672413832845,-18.581177218615554],[23.311867518391292,-18.589584541321845],[23.280928465675935,-18.616070969651805],[23.236837095702256,-18.684672277130478],[23.152035427094344,-18.749076409342877],[23.105695606913052,-18.761727016249328],[23.08463545470564,-18.77711807812941],[23.065616647803218,-18.80732622285931],[22.989273844939287,-18.804853118772375],[22.957714747011405,-18.833281440882143],[22.915983968494256,-18.867289781909808],[22.876243922218382,-18.884886206144014],[22.770923225474334,-18.9058754790626],[22.679271290156475,-18.89846242265061],[22.694937897380484,-18.910524717078435],[22.879875814190115,-18.95328601205721],[22.949456535706357,-18.942900871776693],[23.024689402910283,-18.96818234530445],[23.075927586323374,-18.951145909223435],[23.1537720895105,-18.97502412297988],[23.18933806955458,-18.9534131577659],[23.27452430658202,-18.98658098562602],[23.274341481309058,-19.058342705725405],[23.31836267282924,-19.060070496838403],[23.34858394725654,-19.03183157858726],[23.42041724845841,-19.055274509548365],[23.432383629336908,-19.050114699542906],[23.47093976662714,-19.050455516883083],[23.4914612059041,-19.072850823357957],[23.524158858686473,-19.07438784866378],[23.624421945561128,-19.108846585172792],[23.67320996830664,-19.097973433900908],[23.710355317836203,-19.114235004835216],[23.737151876743308,-19.093643157673245],[23.80494520404633,-19.062926740761117],[23.848939426446073,-19.067097810619543],[23.876424568646435,-19.08609112480058],[23.885167053486395,-19.100150671966368],[23.91614529672494,-19.114468174291286],[23.950002025574786,-19.214580815444954],[23.962336513140606,-19.198687822632333],[23.971100346870905,-19.157952710564857],[23.979909826296797,-19.11992302736524],[23.98188300415869,-19.071179239977223],[23.967609579953624,-19.01548051367688],[23.972657447731386,-18.97931601596519],[23.994232122991495,-18.91815078417306],[24.02742678497257,-18.795259066901508],[24.125356637718312,-18.653567615360355],[24.33513764895876,-18.727962788283236],[24.305904363396234,-18.850809055746698],[24.263637154736525,-18.975658652687475],[24.11704247999517,-19.10939509434814],[24.03079186094502,-19.187083597061925],[24.004720229742205,-19.19274845450026],[23.997801904452505,-19.216422285819565],[23.974494742353695,-19.222910824027277],[23.95384055609795,-19.249424448348595],[23.940716530970835,-19.27700006575998],[23.918291170302094,-19.277359842316695],[23.90743748296388,-19.255521364208604],[23.91508920604976,-19.214267322354804],[23.909209745970653,-19.167236744024933],[23.901275959675456,-19.15994462701749],[23.877616096891337,-19.15833550389765],[23.841415359368167,-19.141949515981423],[23.79330801475992,-19.20073436984163],[23.63963777625378,-19.243324639676537],[23.484650636429112,-19.246001569815256],[23.510970608073713,-19.269522971298798],[23.536169379432177,-19.32867978181022],[23.569130818121163,-19.393356224059016],[23.552395477922595,-19.444900387811465],[23.570962843245713,-19.48175408618156],[23.733394513920185,-19.63442739607604],[23.743233674641417,-19.705779166009897],[23.43172077525241,-20.02033512343614],[23.41558514960493,-20.032902019575836],[23.40956872004907,-20.0350347745587],[23.40066872252951,-20.036964138425272],[23.393702866722197,-20.04027338394287],[23.381537518158318,-20.051287738245723],[23.375499575703664,-20.059807969594367],[23.374626307763474,-20.072261739567402],[23.358892604423254,-20.08845555992643],[23.358836065563015,-20.102171828235253],[23.365726909877516,-20.11917404487339],[23.38155517733621,-20.128647665596702],[23.396573526332087,-20.12445536083961],[23.406206402531904,-20.123184472766862],[23.409449182393104,-20.137955016543284],[23.404684680179525,-20.142008761167343],[23.393223619327546,-20.14216491257951],[23.37645415211823,-20.150369409096353],[23.347990060953585,-20.143343737605946],[23.337928752326807,-20.165146688185235],[23.303583127941696,-20.18398988360057],[23.243875128361736,-20.24606421215478],[23.145475638070245,-20.333122352260435],[23.082712942828064,-20.337968821175252],[22.97930345352245,-20.384131044050722],[22.90831917002911,-20.42783985550375],[22.811776395098832,-20.514709532273567],[22.702033728684235,-20.59553062350803],[22.613177393207877,-20.60864574802034],[22.53310884643227,-20.633901931498055],[22.498111846183704,-20.607637405201384],[22.53431888302679,-20.537825097234276],[22.67064906070961,-20.503862801294115],[22.700429970420835,-20.450433334243346],[22.766805451542247,-20.37619442372028],[22.855705539800176,-20.379358904368257],[22.96075549076437,-20.28828859583595],[23.00130032994886,-20.240826156652737],[23.004818717356628,-20.177433017547873],[23.03384658700069,-20.119866570920045],[22.97555947664341,-20.096782880770853],[22.901200262078707,-19.990518308200237],[22.861905616425396,-19.886390465914427],[22.830110547209994,-19.816644629349774],[22.754753865082225,-19.934699074396967],[22.671307143411276,-20.154314100220656],[22.619144750138254,-20.132165816546518],[22.58676604777306,-19.891005835937822],[22.512199907558085,-19.80865135750069],[22.45635945353326,-19.805342445141566],[22.53927427701303,-19.929151240134157],[22.568111426285494,-20.02133191054043],[22.51186606091989,-20.191596880107234],[22.46573806221888,-20.173123453039572],[22.463654518974067,-19.94865480338771],[22.37926406714715,-19.87952918490293],[22.32253994226094,-19.77242494836262],[22.24721055657663,-19.82390475930214],[22.17907058890235,-19.77531479851755],[22.148327782556958,-19.656653387173318],[22.165448977736087,-19.545227696712168],[22.147245207867797,-19.503836212313225],[22.11906689618989,-19.456843886027258],[22.159567814622765,-19.27734783439061],[22.253889093453793,-19.13899344468788],[22.319262215161068,-19.00759048003908],[22.306254421450515,-18.947075571261944],[21.978982358925645,-18.589959429806047],[21.994871392810904,-18.542920363952017],[21.960145865013132,-18.50194934660074],[21.939886383655118,-18.4664169360785],[21.904530406410643,-18.465858601113624],[21.82856519034458,-18.408192209320088],[21.70252087149316,-18.18297923592959],[21.70242379672612,-18.182657100924768],[21.702376914800464,-18.182495549305926],[21.702286498656925,-18.18217160222735],[21.702242964439044,-18.182009206766043],[21.70217606581242,-18.181749000074152],[21.702135896086666,-18.1815858234354],[21.70205893661454,-18.181258751826547],[21.702022146868156,-18.1810948568551],[21.70195197506866,-18.180766475079004],[21.70191857948574,-18.180601924957998],[21.701855195358863,-18.180272233003613],[21.7018252068149,-18.180107091169138],[21.701735079149998,-18.179579932366277],[21.701721366182145,-18.179497159310873],[21.701694796239064,-18.179331489162713],[21.701681939263835,-18.179248592069822],[21.70165708374314,-18.17908268983185],[21.701645083999747,-18.1789996766909],[21.70162194290143,-18.178833542362135],[21.701610801546504,-18.178750421174218],[21.70159366707825,-18.17861737932325],[21.70158338518571,-18.178534158115838],[21.701563681854104,-18.178367623686867],[21.701554260415033,-18.178284310465198],[21.701536279765048,-18.178117608072416],[21.701527719687533,-18.178034210866638],[21.701511461719175,-18.177867340509305],[21.70150376382833,-18.17778386735766],[21.701480534790033,-18.17751691492739],[21.701473699827826,-18.177433373827384],[21.70146089349085,-18.17726623177899],[21.70145492211608,-18.177182630830586],[21.701443844063498,-18.177015385204058],[21.701438736851767,-18.176931732465285],[21.70142938708359,-18.176764383260164],[21.701425144527157,-18.176680686793777],[21.70141904995714,-18.17654677620697],[21.701415672464947,-18.176463044096554],[21.701409782870357,-18.17629555228621],[21.701407270767945,-18.176211792586265],[21.70140311239547,-18.176044261744593],[21.701401465924995,-18.175960482528435],[21.70139903877466,-18.175792912655332],[21.7013982580948,-18.175709121998416],[21.70139713305406,-18.17543803455432],[21.701396007078287,-18.175166944837375],[21.701394880939528,-18.174895811133265],[21.701394965812216,-18.174812022020138],[21.701396001307426,-18.174644448502654],[21.701396951929944,-18.174560664098276],[21.70139971869986,-18.174393116147094],[21.701401534980583,-18.17430934452625],[21.70140603302522,-18.174141822141493],[21.70140871478911,-18.174058071377605],[21.70141369659057,-18.17392412559058],[21.701417243579183,-18.173840403771813],[21.701425202439253,-18.173672997132247],[21.70142961431072,-18.173589312311492],[21.701439302044445,-18.17342199579609],[21.701444578373582,-18.173338356038478],[21.70145599498097,-18.173171129647606],[21.70146213525926,-18.17308754301442],[21.70148314424603,-18.17282043409741],[21.70149014788169,-18.172736908596768],[21.70150501783536,-18.172569926826124],[21.701512884153377,-18.172486470556187],[21.701529477914022,-18.172319643329924],[21.701538206156272,-18.172236264334323],[21.701556523723884,-18.172069591653106],[21.70156611304922,-18.171986297967578],[21.70158214023454,-18.17185313484444],[21.70159258971876,-18.171769934513097],[21.701614347838962,-18.17160363520759],[21.701625656474956,-18.171520536233555],[21.70164913067761,-18.17135445565515],[21.701661297375516,-18.171271466047454],[21.701686487660645,-18.17110560419709],[21.701699511247877,-18.17102273195454],[21.701785248042707,-18.170494918352258],[21.70181386078195,-18.17032955763586],[21.70187449768444,-18.169999401351884],[21.701906521847697,-18.16983460578537],[21.70197395625265,-18.169505706741315],[21.702009379494736,-18.169341539857918],[21.702083611402145,-18.169013898064467],[21.702122420067475,-18.168850423155703],[21.702187147875534,-18.16858971878498],[21.7022293270035,-18.168426998936933],[21.70224771102405,-18.1683589601138],[21.702255518885448,-18.16830927508098],[21.702341253954305,-18.16778145417671],[21.70236986614489,-18.16761609117039],[21.70243050193704,-18.16728593030387],[21.702462525538614,-18.167121132444755],[21.70252995880771,-18.166792228813936],[21.70256538147535,-18.166628059635812],[21.70263961222141,-18.166300413251385],[21.702678420299822,-18.16613693604639],[21.70274314716024,-18.165876228003437],[21.70278532568913,-18.165713505858232],[21.702873036937785,-18.165388879299897],[21.702918569657548,-18.165226974888277],[21.703012953539506,-18.16490410846142],[21.703061822897467,-18.16474308420411],[21.703162879412726,-18.164421977923407],[21.703215066570028,-18.16426189590176],[21.70338664525184,-18.163753304073552],[21.703442130090615,-18.16359422583391],[21.703556376060423,-18.16327713464083],[21.70361513719147,-18.163119121689306],[21.703735889814514,-18.162804282690583],[21.703797904585755,-18.162647395949303],[21.70381567251069,-18.162603752653236],[21.703823319528727,-18.162542859082045],[21.7038450763595,-18.162376551205515],[21.70385638434928,-18.162293447945533],[21.703879857256613,-18.162127358795367],[21.703892023305333,-18.162044364901554],[21.703917212289234,-18.16187849447868],[21.70393023522443,-18.161795617949725],[21.703947617618038,-18.16168859769843],[21.703948778636452,-18.161670188672595],[21.703960193239116,-18.16150295135606],[21.70396633251341,-18.161419359257124],[21.703987338285827,-18.161152232857727],[21.703994340914388,-18.161068701886066],[21.70400920885087,-18.16090170916826],[21.704017074158802,-18.160818247422185],[21.70403366589643,-18.160651409240128],[21.704042393125675,-18.160568024764125],[21.70406070866442,-18.160401341118472],[21.704070296973928,-18.16031804194889],[21.70408632253216,-18.160184870050344],[21.704096770997822,-18.160101664231448],[21.704118527078332,-18.15993535394791],[21.70412983469317,-18.159852249483357],[21.70415330685112,-18.15968615792217],[21.704165472525386,-18.159603162821515],[21.70419066076078,-18.15943728998363],[21.70420368332192,-18.159354412246515],[21.704289413571104,-18.158826563607747],[21.70431802425145,-18.158661191898183],[21.704378657027814,-18.15833101362618],[21.704410679123836,-18.158166207064802],[21.704478109387686,-18.157837286037264],[21.704513530555033,-18.157673108161315],[21.70458775830635,-18.157345444388923],[21.70462656489032,-18.157181958493766],[21.704691289367084,-18.156921236568785],[21.704733466407923,-18.156758505744552],[21.704821174687495,-18.156433861842487],[21.70486670592622,-18.156271948766182],[21.70496108685426,-18.155949065030928],[21.705009954738795,-18.15578803212648],[21.70511100831533,-18.15546690857269],[21.705163194007316,-18.155306817925077],[21.705334768033058,-18.15479819864397],[21.705390251415185,-18.154639111802833],[21.705504494481044,-18.15432200343429],[21.705563254164787,-18.15416398190882],[21.705684003903567,-18.153849125796537],[21.70574601723729,-18.153692230512313],[21.705873273648972,-18.15337962667458],[21.705938516726903,-18.153223918123196],[21.706045366275887,-18.15297602098021],[21.706113813947177,-18.15282155925123],[21.706253887496807,-18.152513942112503],[21.70632551337514,-18.15236078670504],[21.706471887508844,-18.15205590003776],[21.706546663982856,-18.15190411000293],[21.706699338700602,-18.151601953828575],[21.70677723694435,-18.151451587691504],[21.707030430288,-18.150974722605486],[21.707111420272057,-18.150825838191615],[21.7072764607593,-18.150529608642913],[21.70736051126251,-18.150382263510693],[21.707531607402203,-18.15008922583135],[21.707618686023437,-18.149943476793702],[21.70779583781558,-18.149653631007812],[21.707885910986494,-18.14950953426231],[21.708032254781163,-18.149280566613967],[21.708125287779037,-18.14913817776851],[21.7083142777379,-18.148855162830404],[21.70841023469889,-18.148714536740616],[21.708604998045857,-18.14843515539761],[21.70870384197919,-18.148296346286923],[21.708904378714276,-18.14802059856516],[21.709006071516022,-18.147883659957056],[21.709334650105685,-18.147450292717963],[21.70943915257376,-18.147315277290318],[21.70965092689117,-18.14704722180011],[21.709758198740495,-18.1469141817406],[21.709975428588887,-18.146650179182497],[21.71008542846655,-18.146519165791307],[21.710308113845915,-18.146259216192863],[21.710420799347613,-18.146130279988704],[21.71060303414262,-18.145925880745327],[21.710718361828697,-18.14579907148361],[21.710951614926884,-18.145547628760127],[21.71106954033897,-18.145422995301494],[21.711307897478097,-18.145175999860648],[21.71142837515667,-18.145053590264684],[21.711671836336727,-18.144811042134766],[21.711794819838218,-18.144690903603948],[21.71219069348275,-18.144311707295063],[21.71231613539758,-18.144193886061245],[21.712354089761163,-18.144158930715427],[21.712519231846098,-18.143994405694254],[21.712642214782253,-18.14387426608776],[21.712838041331764,-18.14368668686617],[21.712924678642416,-18.14360205219406],[21.71332054990744,-18.14322285131475],[21.713445991082736,-18.143105028647103],[21.71369928350394,-18.142871746137306],[21.713827134749856,-18.14275628629833],[21.71408514828537,-18.142527818014376],[21.714215360316004,-18.142414765527363],[21.71447809496581,-18.142191111497546],[21.71461061758499,-18.142080509957875],[21.714824255335497,-18.14190571097582],[21.714959037456442,-18.141797603061],[21.715230809242318,-18.141583922514375],[21.715367798907234,-18.141478349885674],[21.715643879748008,-18.141269820824196],[21.71578302414802,-18.14116682419328],[21.71606341404368,-18.140963446644598],[21.716204659539343,-18.140863065729867],[21.716658079134238,-18.140547375296446],[21.71680137127617,-18.14044964874211],[21.717089946967853,-18.140256887744947],[21.7172352305176,-18.140161853305074],[21.717527676639804,-18.13997454929473],[21.717674895591376,-18.13988224361786],[21.71797121214414,-18.139700396620643],[21.718120309745334,-18.139610855303175],[21.71836009158972,-18.13946996420077],[21.71851101036412,-18.13938322179085],[21.7188146109078,-18.13921256930893],[21.71896729267708,-18.139128659239685],[21.719274301165836,-18.13896373559324],[21.71942868707187,-18.13888269022397],[21.719739103505713,-18.1387234954373],[21.719895134033518,-18.13864534602255],[21.720394937959874,-18.13840094171747],[21.720552552960527,-18.13832571835598],[21.720869306674857,-18.13817822673408],[21.72102844538854,-18.13810595847614],[21.721348123552744,-18.137964432215618],[21.72150872463231,-18.13789514693133],[21.721831327246377,-18.137759586053896],[21.72199332878091,-18.137693310463074],[21.72225335086288,-18.137589797558146],[21.72241669040162,-18.137526557229375]]]]}}]}